NORAD_CAT_ID,OBJECT_NAME,OBJECT_TYPE,EPOCH,MEAN_MOTION,ECCENTRICITY,INCLINATION,RA_OF_ASC_NODE,ARG_OF_PERICENTER,MEAN_ANOMALY,BSTAR,MEAN_MOTION_DOT,MEAN_MOTION_DDOT,TLE_LINE0,TLE_LINE1,TLE_LINE2,SEMIMAJOR_AXIS,PERIOD,APOGEE,PERIGEE,DECAYED
53407.0,STARLINK-4537,PAYLOAD,2023-03-31 10:17:53,15.0884702,0.0001724,53.2146,246.8985,67.1567,292.9607,0.00099118,0.00015525,0.0,0 STARLINK-4537,1 53407U 22097V   23090.42909315  .00015525  00000-0  99118-3 0  9995,2 53407  53.2146 246.8985 0001724  67.1567 292.9607 15.08847020 36122,6917.859,95.437,540.917,538.531,0.0
53407.0,STARLINK-4537,PAYLOAD,2023-04-01 03:47:08,15.08834853,8.98e-05,53.2157,243.6285,44.6262,315.4802,0.00027246,4.051e-05,0.0,0 STARLINK-4537,1 53407U 22097V   23091.15773197  .00004051  00000-0  27246-3 0  9998,2 53407  53.2157 243.6285 0000898  44.6262 315.4802 15.08834853 36235,6917.896,95.438,540.382,539.14,0.0
53407.0,STARLINK-4537,PAYLOAD,2023-04-01 13:19:27,15.08830878,0.0001255,53.216,241.8429,78.0299,282.0833,0.00013229,1.818e-05,0.0,0 STARLINK-4537,1 53407U 22097V   23091.55517893  .00001818  00000-0  13229-3 0  9995,2 53407  53.2160 241.8429 0001255  78.0299 282.0833 15.08830878 36784,6917.908,95.438,540.641,538.905,0.0
53407.0,STARLINK-4537,PAYLOAD,2023-04-01 18:05:37,15.08829416,0.0001517,53.2144,240.9497,88.8656,271.251,0.00028661,4.275e-05,0.0,0 STARLINK-4537,1 53407U 22097V   23091.75390062  .00004275  00000-0  28661-3 0  9990,2 53407  53.2144 240.9497 0001517  88.8656 271.2510 15.08829416 36326,6917.913,95.438,540.827,538.728,0.0
53407.0,STARLINK-4537,PAYLOAD,2023-04-02 13:10:14,15.08851784,0.0001307,53.215,237.3805,89.2986,270.8155,0.00068745,0.00010673,0.0,0 STARLINK-4537,1 53407U 22097V   23092.54877736  .00010673  00000-0  68745-3 0  9992,2 53407  53.2150 237.3805 0001307  89.2986 270.8155 15.08851784 36934,6917.844,95.437,540.614,538.805,0.0
53407.0,STARLINK-4537,PAYLOAD,2023-04-02 14:45:37,15.08855342,0.0001361,53.2147,237.0839,84.2334,275.8813,0.00078742,0.00012271,0.0,0 STARLINK-4537,1 53407U 22097V   23092.61501683  .00012271  00000-0  78742-3 0  9999,2 53407  53.2147 237.0839 0001361  84.2334 275.8813 15.08855342 36453,6917.833,95.437,540.64,538.757,0.0
53407.0,STARLINK-4537,PAYLOAD,2023-04-02 19:31:46,15.08871029,0.0001347,53.2149,236.191,75.4265,284.6876,0.0011887,0.00018697,0.0,0 STARLINK-4537,1 53407U 22097V   23092.81373253  .00018697  00000-0  11887-2 0  9995,2 53407  53.2149 236.1910 0001347  75.4265 284.6876 15.08871029 36978,6917.786,95.436,540.582,538.719,0.0
53407.0,STARLINK-4537,PAYLOAD,2023-04-03 01:53:19,15.08848205,0.0001217,53.2149,235.003,78.9066,281.2063,0.00013965,1.936e-05,0.0,0 STARLINK-4537,1 53407U 22097V   23093.07869441  .00001936  00000-0  13965-3 0  9991,2 53407  53.2149 235.0030 0001217  78.9066 281.2063 15.08848205 36524,6917.855,95.437,540.562,538.878,0.0
53407.0,STARLINK-4537,PAYLOAD,2023-04-03 09:50:14,15.08857242,0.0001746,53.2147,233.5156,79.3907,280.7281,0.00058518,9.042e-05,0.0,0 STARLINK-4537,1 53407U 22097V   23093.40989351  .00009042  00000-0  58518-3 0  9990,2 53407  53.2147 233.5156 0001746  79.3907 280.7281 15.08857242 37067,6917.828,95.436,540.901,538.485,0.0
53407.0,STARLINK-4537,PAYLOAD,2023-04-03 17:47:10,15.08856872,0.000141,53.2146,232.0296,88.8185,271.2968,0.00063236,9.795e-05,0.0,0 STARLINK-4537,1 53407U 22097V   23093.74109114  .00009795  00000-0  63236-3 0  9996,2 53407  53.2146 232.0296 0001410  88.8185 271.2968 15.08856872 37117,6917.829,95.436,540.669,538.718,0.0
53407.0,STARLINK-4537,PAYLOAD,2023-04-04 01:44:06,15.08843013,0.0001636,53.2144,230.5416,88.4212,271.6967,0.00034921,5.274e-05,0.0,0 STARLINK-4537,1 53407U 22097V   23094.07229457  .00005274  00000-0  34921-3 0  9993,2 53407  53.2144 230.5416 0001636  88.4212 271.6967 15.08843013 36675,6917.871,95.437,540.868,538.604,0.0
53407.0,STARLINK-4537,PAYLOAD,2023-04-04 08:05:38,15.08847547,0.0001653,53.2147,229.3523,88.5171,271.601,0.00066086,0.00010247,0.0,0 STARLINK-4537,1 53407U 22097V   23094.33725453  .00010247  00000-0  66086-3 0  9992,2 53407  53.2147 229.3523 0001653  88.5171 271.6010 15.08847547 37202,6917.857,95.437,540.866,538.579,0.0
53407.0,STARLINK-4537,PAYLOAD,2023-04-04 19:13:20,15.08847776,0.0001674,53.2152,227.2704,88.0485,272.0698,0.00056254,8.678e-05,0.0,0 STARLINK-4537,1 53407U 22097V   23094.80093409  .00008678  00000-0  56254-3 0  9994,2 53407  53.2152 227.2704 0001674  88.0485 272.0698 15.08847776 37270,6917.857,95.437,540.88,538.564,0.0
53407.0,STARLINK-4537,PAYLOAD,2023-04-05 14:17:58,15.08836348,0.0001417,53.2155,223.702,98.9815,261.1338,0.00048869,7.497e-05,0.0,0 STARLINK-4537,1 53407U 22097V   23095.59581982  .00007497  00000-0  48869-3 0  9990,2 53407  53.2155 223.7020 0001417  98.9815 261.1338 15.08836348 37393,6917.892,95.438,540.737,538.776,0.0
53407.0,STARLINK-4537,PAYLOAD,2023-04-05 15:53:21,15.0883937,0.0001345,53.2156,223.4046,94.7257,265.3889,0.00070307,0.00010919,0.0,0 STARLINK-4537,1 53407U 22097V   23095.66206008  .00010919  00000-0  70307-3 0  9996,2 53407  53.2156 223.4046 0001345  94.7257 265.3889 15.08839370 36915,6917.882,95.438,540.678,538.817,0.0
53407.0,STARLINK-4537,PAYLOAD,2023-04-06 01:25:41,15.08837078,0.0001349,53.2153,221.6206,93.5903,266.5243,0.00060171,9.3e-05,0.0,0 STARLINK-4537,1 53407U 22097V   23096.05950325  .00009300  00000-0  60171-3 0  9998,2 53407  53.2153 221.6206 0001349  93.5903 266.5243 15.08837078 36975,6917.889,95.438,540.688,538.821,0.0
53407.0,STARLINK-4537,PAYLOAD,2023-04-06 12:33:23,15.08840147,0.0001489,53.2166,219.54,92.5788,267.5375,0.0004283,6.535e-05,0.0,0 STARLINK-4537,1 53407U 22097V   23096.52318461  .00006535  00000-0  42830-3 0  9998,2 53407  53.2166 219.5400 0001489  92.5788 267.5375 15.08840147 37537,6917.88,95.438,540.775,538.715,0.0
53407.0,STARLINK-4537,PAYLOAD,2023-04-07 01:16:28,15.08843582,0.0001352,53.2153,217.1584,82.6268,277.4878,0.00039896,6.068e-05,0.0,0 STARLINK-4537,1 53407U 22097V   23097.05310408  .00006068  00000-0  39896-3 0  9999,2 53407  53.2153 217.1584 0001352  82.6268 277.4878 15.08843582 37121,6917.869,95.437,540.67,538.799,0.0
53407.0,STARLINK-4537,PAYLOAD,2023-04-07 12:24:10,15.08845575,0.000179,53.2163,215.0794,78.8643,281.255,0.00031988,4.807e-05,0.0,0 STARLINK-4537,1 53407U 22097V   23097.51678549  .00004807  00000-0  31988-3 0  9996,2 53407  53.2163 215.0794 0001790  78.8643 281.2550 15.08845575 37687,6917.863,95.437,540.967,538.49,0.0
53407.0,STARLINK-4537,PAYLOAD,2023-04-08 01:07:15,15.08841255,0.0001779,53.215,212.702,75.0585,285.0604,0.00015912,2.245e-05,0.0,0 STARLINK-4537,1 53407U 22097V   23098.04670655  .00002245  00000-0  15912-3 0  9998,2 53407  53.2150 212.7020 0001779  75.0585 285.0604 15.08841255 37278,6917.877,95.437,540.972,538.511,0.0
53407.0,STARLINK-4537,PAYLOAD,2023-04-08 12:14:57,15.08838534,0.0001464,53.2144,210.6187,86.9759,273.1401,9.734e-05,1.261e-05,0.0,0 STARLINK-4537,1 53407U 22097V   23098.51038766  .00001261  00000-0  97340-4 0  9994,2 53407  53.2144 210.6187 0001464  86.9759 273.1401 15.08838534 37838,6917.885,95.438,540.763,538.737,0.0
53407.0,STARLINK-4537,PAYLOAD,2023-04-09 00:58:02,15.0884085,0.0001502,53.2156,208.2403,81.2822,278.834,0.00016754,2.379e-05,0.0,0 STARLINK-4537,1 53407U 22097V   23099.04030780  .00002379  00000-0  16754-3 0  9991,2 53407  53.2156 208.2403 0001502  81.2822 278.8340 15.08840850 37420,6917.878,95.438,540.782,538.704,0.0
53407.0,STARLINK-4537,PAYLOAD,2023-04-09 10:30:21,15.08841637,0.000142,53.2151,206.4559,85.4516,274.6639,0.00012496,1.701e-05,0.0,0 STARLINK-4537,1 53407U 22097V   23099.43774729  .00001701  00000-0  12496-3 0  9999,2 53407  53.2151 206.4559 0001420  85.4516 274.6639 15.08841637 37971,6917.875,95.437,540.723,538.758,0.0
53407.0,STARLINK-4537,PAYLOAD,2023-04-09 16:51:53,15.08848795,0.0001355,53.2157,205.2643,100.2281,259.8864,0.00015141,2.123e-05,0.0,0 STARLINK-4537,1 53407U 22097V   23099.70270216  .00002123  00000-0  15141-3 0  9990,2 53407  53.2157 205.2643 0001355 100.2281 259.8864 15.08848795 38013,6917.854,95.437,540.656,538.781,0.0
53407.0,STARLINK-4537,PAYLOAD,2023-04-10 07:10:22,15.08840476,0.0001359,53.2155,202.5866,113.9809,246.1325,0.00020895,3.039e-05,0.0,0 STARLINK-4537,1 53407U 22097V   23100.29886613  .00003039  00000-0  20895-3 0  9990,2 53407  53.2155 202.5866 0001359 113.9809 246.1325 15.08840476 37613,6917.879,95.438,540.684,538.804,0.0
53407.0,STARLINK-4537,PAYLOAD,2023-04-11 11:47:17,15.08848503,0.0001412,53.2146,197.2349,109.8045,250.3099,0.0001348,1.859e-05,0.0,0 STARLINK-4537,1 53407U 22097V   23101.49117813  .00001859  00000-0  13480-3 0  9992,2 53407  53.2146 197.2349 0001412 109.8045 250.3099 15.08848503 37798,6917.854,95.437,540.696,538.743,0.0
53407.0,STARLINK-4537,PAYLOAD,2023-04-12 13:13:29,15.08833585,0.000154,53.2182,192.4829,111.0198,249.0959,-3.3793e-05,-8.26e-06,0.0,0 STARLINK-4537,1 53407U 22097V   23102.55103178 -.00000826  00000-0 -33793-4 0  9994,2 53407  53.2182 192.4829 0001540 111.0198 249.0959 15.08833585 38441,6917.9,95.438,540.83,538.7,0.0
53407.0,STARLINK-4537,PAYLOAD,2023-04-12 22:45:47,15.08836923,0.0001435,53.218,190.6977,104.3262,255.7889,1.7083e-05,-1.6e-07,0.0,0 STARLINK-4537,1 53407U 22097V   23102.94846980 -.00000016  00000-0  17083-4 0  9996,2 53407  53.2180 190.6977 0001435 104.3262 255.7889 15.08836923 38505,6917.89,95.438,540.748,538.762,0.0
53407.0,STARLINK-4537,PAYLOAD,2023-04-13 17:50:24,15.08854239,0.0001304,53.2159,187.1253,85.3589,274.7552,0.0001769,2.53e-05,0.0,0 STARLINK-4537,1 53407U 22097V   23103.74333381  .00002530  00000-0  17690-3 0  9996,2 53407  53.2159 187.1253 0001304  85.3589 274.7552 15.08854239 38131,6917.837,95.437,540.604,538.8,0.0
53407.0,STARLINK-4537,PAYLOAD,2023-04-14 11:19:39,15.08838566,0.000141,53.2166,183.8566,88.8331,271.2822,0.00012606,1.719e-05,0.0,0 STARLINK-4537,1 53407U 22097V   23104.47198895  .00001719  00000-0  12606-3 0  9996,2 53407  53.2166 183.8566 0001410  88.8331 271.2822 15.08838566 38733,6917.885,95.438,540.725,538.774,0.0
